{
    "links": {
        "self": "http://www.neowsapp.com/rest/v1/neo/3837863?api_key=iIulBulltgU6a56xZRHN4H3l9WmuAYTsLGpBGhQ2"
    },
    "id": "3837863",
    "neo_reference_id": "3837863",
    "name": "(2019 AU11)",
    "designation": "2019 AU11",
    "nasa_jpl_url": "http://ssd.jpl.nasa.gov/sbdb.cgi?sstr=3837863",
    "absolute_magnitude_h": 24.6,
    "estimated_diameter": {
        "kilometers": {
            "estimated_diameter_min": 0.0319561887,
            "estimated_diameter_max": 0.0714562102
        },
        "meters": {
            "estimated_diameter_min": 31.9561886721,
            "estimated_diameter_max": 71.4562101727
        },
        "miles": {
            "estimated_diameter_min": 0.0198566489,
            "estimated_diameter_max": 0.0444008168
        },
        "feet": {
            "estimated_diameter_min": 104.8431420431,
            "estimated_diameter_max": 234.436392583
        }
    },
    "is_potentially_hazardous_asteroid": false,
    "close_approach_data": [
        {
            "close_approach_date": "1912-11-26",
            "close_approach_date_full": "1912-Nov-26 16:28",
            "epoch_date_close_approach": -1801812720000,
            "relative_velocity": {
                "kilometers_per_second": "6.0185250677",
                "kilometers_per_hour": "21666.690243881",
                "miles_per_hour": "13462.8387240382"
            },
            "miss_distance": {
                "astronomical": "0.4043813137",
                "lunar": "157.3043310293",
                "kilometers": "60494583.197321819",
                "miles": "37589590.9463223422"
            },
            "orbiting_body": "Earth"
        },
        {
            "close_approach_date": "2019-01-13",
            "close_approach_date_full": "2019-Jan-13 00:45",
            "epoch_date_close_approach": 1547340300000,
            "relative_velocity": {
                "kilometers_per_second": "8.1517838782",
                "kilometers_per_hour": "29346.4219616816",
                "miles_per_hour": "18234.725357246"
            },
            "miss_distance": {
                "astronomical": "0.0853860273",
                "lunar": "33.2151646197",
                "kilometers": "12773567.811841851",
                "miles": "7937126.9888095038"
            },
            "orbiting_body": "Earth"
        },
        {
            "close_approach_date": "2022-01-05",
            "close_approach_date_full": "2022-Jan-05 03:46",
            "epoch_date_close_approach": 1641354360000,
            "relative_velocity": {
                "kilometers_per_second": "15.408303232",
                "kilometers_per_hour": "55469.8916352191",
                "miles_per_hour": "34466.8334996727"
            },
            "miss_distance": {
                "astronomical": "0.405990924",
                "lunar": "157.930469436",
                "kilometers": "60735377.46973188",
                "miles": "37739213.569104744"
            },
            "orbiting_body": "Earth"
        }
    ],
    "orbital_data": {
        "orbit_id": "2",
        "orbit_determination_date": "2019-01-16 06:49:38",
        "first_observation_date": "2019-01-13",
        "last_observation_date": "2019-01-15",
        "data_arc_in_days": 2,
        "observations_used": 12,
        "orbit_uncertainty": "8",
        "minimum_orbit_intersection": ".0817979",
        "jupiter_tisserand_invariant": "4.972",
        "epoch_osculation": "2458497.5",
        "eccentricity": ".1965392354212018",
        "semi_major_axis": "1.293490787063482",
        "inclination": "13.90925289794618",
        "ascending_node_longitude": "286.1160080410254",
        "orbital_period": "537.3329049928741",
        "perihelion_distance": "1.039269096749657",
        "perihelion_argument": "215.0461828010279",
        "aphelion_distance": "1.547712477377308",
        "perihelion_time": "2458523.743907353649",
        "mean_anomaly": "342.4172192703536",
        "mean_motion": ".669975720181838",
        "equinox": "J2000",
        "orbit_class": {
            "orbit_class_type": "AMO",
            "orbit_class_description": "Near-Earth asteroid orbits similar to that of 1221 Amor",
            "orbit_class_range": "1.017 AU < q (perihelion) < 1.3 AU"
        }
    },
    "is_sentry_object": false
}